#dP2024 10  8  0  0  0.00000000      96 __u+U IGS20 FIT  IAC
## 2335 172800.00000000   900.00000000 60591 0.0000000000000
+   53   G02G03G04G05G06G07G08G09G10G11G12G13G14G15G16G17G18
+        G19G20G21G22G23G24G25G26G27G28G29G30G31G32R01R02R03
+        R04R05R07R08R09R11R12R14R15R16R17R18R19R20R21R22R24
+        R25R26  0  0  0  0  0  0  0  0  0  0  0  0  0  0  0
+          0  0  0  0  0  0  0  0  0  0  0  0  0  0  0  0  0
++         5  4  5  6  6  5  5  5  4  5  4  6  5  6  5  6  6
++         6  6  5  6  4  5  6  7  5  5  5  6  6  4  7  6  7
++         6  6  6  5  8  6  7  6  7  7  4  6  6  7  7  5  6
++         5  6  0  0  0  0  0  0  0  0  0  0  0  0  0  0  0
++         0  0  0  0  0  0  0  0  0  0  0  0  0  0  0  0  0
%c M  cc GPS ccc cccc cccc cccc cccc ccccc ccccc ccccc ccccc
%c cc cc ccc ccc cccc cccc cccc cccc ccccc ccccc ccccc ccccc
%f  0.0000000  0.000000000  0.00000000000  0.000000000000000
%f  0.0000000  0.000000000  0.00000000000  0.000000000000000
%i    0    0    0    0      0      0      0      0         0
%i    0    0    0    0      0      0      0      0         0
/* INFORMATION & ANALYSIS CENTER (IAC)      ULTRA-RAPID DATA
/* S/V CLOCKS ARE ALIGNED TO GNSS TIME                      
/* G:C1WC2W R:C1PC2P E:C1XC5X C:C2IC6I J:C1CC2S             
/* PCV:IGS20_2317 OL/AL:FES2004  NONE     YN ORB:CoN CLK:CoN
*  2024 10 08 10  0  0.00000000
PG02  13539.966969  13180.686360 -18331.499756   -341.612872
PG03  12815.420023  22840.892836   4588.070495    563.612108
PG04   7223.290560  14323.050677  21156.929701    457.916303
PG05  -3602.572529 -24006.217777  10519.207785   -189.115401
PG06  22030.679566  -5995.363879  13731.175571    -23.445016
PG07  25285.606592   7238.089382   5688.939052    -29.646052
PG08  -1982.264363  21630.641990 -15096.015387    377.806697
PG09  15258.010071   4267.815005  21231.216812    389.629961
PG10 -13860.017285   4578.778574 -21982.470369   -151.236101
PG11   8426.852900 -13477.830584  21300.293004   -742.176168
PG12  -9303.724569 -24869.352888   1007.919843   -543.649157
PG13  11517.887232 -21486.329791 -10476.996971    680.443821
PG14  16154.189013   -553.917431 -21061.700816    512.901512
PG15  -1271.202895 -21827.859845 -15490.886989    213.285420
PG16  -2671.203492  22291.888080  13490.207933   -160.425053
PG17  20625.545561 -10975.714006 -12378.336970    602.474622
PG18 -25653.957207  -6291.298840   3809.779367   -657.146921
PG19  20023.673086 -16413.453798  -4947.803354    547.895141
PG20   4014.598372 -18309.725259  18945.418746    369.878043
PG21   7821.102232  14611.200498 -20569.857007    100.207274
PG22  12370.185829  -9661.028725 -21061.971539    -69.157252
PG23 -17389.535426  -9569.718672 -17728.073487    337.113886
PG24 -11198.845614 -14771.294578 -19610.365033   -485.367920
PG25 -16646.300904 -17186.608805  11464.217513    499.574913
PG26 -10035.258303  13460.217770  20341.548140     60.869334
PG27 -11385.728315  22934.180188  -6450.114052    -34.415048
PG28 -23218.468920   5887.491147  11467.157764   -438.666457
PG29 -13405.435311  -7323.520241  21697.927565   -572.715412
PG30  26215.939961   -416.677751  -4902.484204   -306.494096
PG31 -14092.598547  11645.057629  19159.314666   -223.679094
PG32 -19728.799391  13139.941910 -11555.914807   -589.114792
PR01   4384.737849  17341.600181  18182.262375    100.338541
PR02  11011.403884    597.342932  23043.693789    -25.065804
PR03  12165.978362 -16890.266990  14831.371857    109.008816
PR04   6896.217409 -24542.275511  -1162.166969    258.316662
PR05  -2080.748149 -19285.611995 -16578.298037    138.842911
PR07 -12057.866896  17235.398724 -14352.733654     92.494376
PR08  -6480.497365  24603.750510   1533.617016     -6.428287
PR09 -19594.239818 -10473.017812  12475.689903    213.514771
PR11   1173.724563  15121.586213  20525.894007      9.814941
PR12  15530.257080  19576.799256   5116.723209     45.768697
PR14  11799.191649  -3475.185553 -22336.017132     27.036268
PR15  -2488.741711 -16126.993629 -19583.074448     75.089958
PR16 -15540.913087 -19503.933679  -5262.621824     29.777495
PR17  22488.099108  -9047.425788   7875.015847    128.899709
PR18   9952.961486 -11699.914857  20397.017807    165.850120
PR19  -5676.832431  -9406.457722  23026.540296   -294.120625
PR20 -23136.602741   -498.032848  10709.478167   -120.153956
PR21 -23001.527413   8525.016369  -7056.368232   -141.001294
PR22  -8898.352386  11815.989974 -20749.921178     26.779730
PR24  23395.228628   -679.830318 -10088.742828    -75.174097
PR25 -22667.859198   8428.880550  -8146.069282    -93.970042
PR26  -7120.501302  24502.388108   -185.751419     67.605272
*  2024 10 08 10 15  0.00000000
PG02  11285.231210  13273.894827 -19675.915022   -341.605537
PG03  12814.448201  23256.158610   1718.165458    563.623174
PG04   5725.822248  16160.224873  20259.476586    457.922516
PG05  -2797.248787 -22882.632656  12951.611042   -189.116677
PG06  23424.501794  -5710.739801  11332.663631    -23.469501
PG07  24535.657648   7398.334091   8348.162766    -29.642542
PG08  -3058.894118  22843.148035 -12921.184222    377.817437
PG09  13913.347130   6342.512687  21625.542072    389.644790
PG10 -14911.640943   2270.680172 -21684.268061   -151.247919
PG11  10777.250796 -13080.005478  20465.666165   -742.179049
PG12  -9064.392393 -24941.760774  -1846.769008   -543.651365
PG13  12378.018576 -22083.338825  -7850.026374    680.445576
PG14  17038.691708   1654.382429 -20315.425085    512.909157
PG15   -357.722849 -23145.346664 -13401.765869    213.289628
PG16  -3470.843546  20735.787897  15613.230775   -160.415531
PG17  19772.009609  -9608.874355 -14612.725841    602.463207
PG18 -25048.347350  -6418.478036   6597.826448   -657.148298
PG19  19748.428109 -15703.869262  -7713.714151    547.899187
PG20   5380.121500 -16553.911761  20173.558819    369.877550
PG21   5362.007358  14637.777437 -21218.890531    100.206475
PG22  13241.881513  -7300.490118 -21444.287325    -69.160364
PG23 -18135.873439 -11337.168866 -15861.864383    337.121295
PG24  -8987.335203 -14884.589003 -20623.272963   -485.366981
PG25 -16957.222983 -18379.964203   8985.097649    499.574880
PG26 -11307.222831  11407.775673  20949.919675     60.861150
PG27 -11930.065725  23228.569569  -3650.037818    -34.415291
PG28 -24372.659675   5595.049970   8944.467811   -438.678247
PG29 -11822.393400  -9256.523164  21867.636091   -572.713090
PG30  26605.614529    -77.809578  -2151.010586   -306.487345
PG31 -16207.605228  11275.808302  17702.773969   -223.678711
PG32 -19062.575997  11785.091778 -13878.627294   -589.110890
PR01   4016.298088  19424.067241  16036.594455    100.339225
PR02  10267.545641   3339.904068  23146.728604    -25.066505
PR03  11558.730037 -15018.425281  17149.671520    109.009516
PR04   6706.697154 -24538.505054   2063.345978    258.318031
PR05  -1715.580733 -21153.528012 -14170.117251    138.843797
PR07 -11462.862945  15398.707597 -16730.746430     92.494680
PR08  -6320.005334  24628.300382  -1689.280472     -6.428524
PR09 -20654.391230 -11337.923206   9687.351723    213.516310
PR11   -669.783093  13276.390028  21785.345328      9.813812
PR12  15031.846452  18916.312744   8185.612447     45.769077
PR14  13780.106226  -1640.520348 -21394.246191     27.036414
PR15   -725.971366 -14336.236067 -21063.658126     75.089182
PR16 -15034.969850 -18815.904015  -8336.833991     29.777660
PR17  23193.750451  -9423.952436   4763.678609    128.902617
PR18  12254.810560 -12411.028885  18650.222417    165.851766
PR19  -2882.205411 -10018.241864  23285.314156   -294.121514
PR20 -21638.019740   -642.247471  13481.666396   -120.153959
PR21 -23607.324423   8887.069745  -3914.322025   -141.003716
PR22 -11286.230111  12449.391713 -19159.245573     26.770088
PR24  21990.175772   -428.825397 -12874.506761    -75.175895
PR25 -23431.134096   8750.986950  -5072.207479    -93.966844
PR26  -6905.284110  24326.716424  -3395.487780     67.629188
EOF
